{
  "type": "FeatureCollection",
  "features": [
    {
      "type": "Feature",
      "properties": {
        "norad_id": 66800,
        "name": "STARLINK-35996",
        "group": "last-30-days",
        "lat": -38.99981175771009,
        "lon": 128.60700018472252,
        "alt_km": 416.6671445419406,
        "timestamp": "2025-12-23T05:02:10.750133+00:00",
        "meta_object_name": "STARLINK-35996",
        "meta_object_id": "2025-278K",
        "meta_epoch": "2025-12-22T22:00:03.000096",
        "meta_mean_motion": 15.51592238,
        "meta_eccentricity": 0.00018758,
        "meta_inclination": 42.9994,
        "meta_ra_of_asc_node": 190.6686,
        "meta_arg_of_pericenter": 268.7878,
        "meta_mean_anomaly": 184.9344,
        "meta_ephemeris_type": 0,
        "meta_classification_type": "U",
        "meta_norad_cat_id": 66800,
        "meta_element_set_no": 999,
        "meta_rev_at_epoch": 438,
        "meta_bstar": -0.025737276,
        "meta_mean_motion_dot": -0.01403945,
        "meta_mean_motion_ddot": 0,
        "tle_line1": "1 66800U 25278K   25356.91670139 -.01403945  00000+0 -25737-1 0  9993",
        "tle_line2": "2 66800  42.9994 190.6686 0001875 268.7878 184.9344 15.51592238  4381"
      },
      "geometry": {
        "type": "Point",
        "coordinates": [
          128.60700018472252,
          -38.99981175771009
        ]
      }
    },
    {
      "type": "Feature",
      "properties": {
        "norad_id": 66801,
        "name": "STARLINK-36080",
        "group": "last-30-days",
        "lat": -35.23249140748497,
        "lon": 139.64282936540008,
        "alt_km": 416.5327153164244,
        "timestamp": "2025-12-23T05:02:10.750143+00:00",
        "meta_object_name": "STARLINK-36080",
        "meta_object_id": "2025-278L",
        "meta_epoch": "2025-12-22T22:00:03.000096",
        "meta_mean_motion": 15.51607749,
        "meta_eccentricity": 0.00021193,
        "meta_inclination": 42.9993,
        "meta_ra_of_asc_node": 190.6427,
        "meta_arg_of_pericenter": 265.5262,
        "meta_mean_anomaly": 197.7851,
        "meta_ephemeris_type": 0,
        "meta_classification_type": "U",
        "meta_norad_cat_id": 66801,
        "meta_element_set_no": 999,
        "meta_rev_at_epoch": 459,
        "meta_bstar": -0.026564097,
        "meta_mean_motion_dot": -0.01445128,
        "meta_mean_motion_ddot": 0,
        "tle_line1": "1 66801U 25278L   25356.91670139 -.01445128  00000+0 -26564-1 0  9992",
        "tle_line2": "2 66801  42.9993 190.6427 0002119 265.5262 197.7851 15.51607749  4590"
      },
      "geometry": {
        "type": "Point",
        "coordinates": [
          139.64282936540008,
          -35.23249140748497
        ]
      }
    },
    {
      "type": "Feature",
      "properties": {
        "norad_id": 66802,
        "name": "STARLINK-35604",
        "group": "last-30-days",
        "lat": -39.62051977551097,
        "lon": 126.27808928234158,
        "alt_km": 416.5946034035778,
        "timestamp": "2025-12-23T05:02:10.750155+00:00",
        "meta_object_name": "STARLINK-35604",
        "meta_object_id": "2025-278M",
        "meta_epoch": "2025-12-22T22:00:03.000096",
        "meta_mean_motion": 15.51604303,
        "meta_eccentricity": 0.00021752,
        "meta_inclination": 42.9994,
        "meta_ra_of_asc_node": 190.6727,
        "meta_arg_of_pericenter": 261.6902,
        "meta_mean_anomaly": 190.1153,
        "meta_ephemeris_type": 0,
        "meta_classification_type": "U",
        "meta_norad_cat_id": 66802,
        "meta_element_set_no": 999,
        "meta_rev_at_epoch": 459,
        "meta_bstar": -0.026343432,
        "meta_mean_motion_dot": -0.01434246,
        "meta_mean_motion_ddot": 0,
        "tle_line1": "1 66802U 25278M   25356.91670139 -.01434246  00000+0 -26343-1 0  9997",
        "tle_line2": "2 66802  42.9994 190.6727 0002175 261.6902 190.1153 15.51604303  4590"
      },
      "geometry": {
        "type": "Point",
        "coordinates": [
          126.27808928234158,
          -39.62051977551097
        ]
      }
    },
    {
      "type": "Feature",
      "properties": {
        "norad_id": 66803,
        "name": "STARLINK-35565",
        "group": "last-30-days",
        "lat": -38.328957236428806,
        "lon": 130.9073435464057,
        "alt_km": 416.61843043398585,
        "timestamp": "2025-12-23T05:02:10.750167+00:00",
        "meta_object_name": "STARLINK-35565",
        "meta_object_id": "2025-278N",
        "meta_epoch": "2025-12-22T22:00:03.000096",
        "meta_mean_motion": 15.51600165,
        "meta_eccentricity": 0.00021882,
        "meta_inclination": 42.9994,
        "meta_ra_of_asc_node": 190.6631,
        "meta_arg_of_pericenter": 259.3252,
        "meta_mean_anomaly": 196.3154,
        "meta_ephemeris_type": 0,
        "meta_classification_type": "U",
        "meta_norad_cat_id": 66803,
        "meta_element_set_no": 999,
        "meta_rev_at_epoch": 468,
        "meta_bstar": -0.026219839,
        "meta_mean_motion_dot": -0.01428033,
        "meta_mean_motion_ddot": 0,
        "tle_line1": "1 66803U 25278N   25356.91670139 -.01428033  00000+0 -26220-1 0  9999",
        "tle_line2": "2 66803  42.9994 190.6631 0002188 259.3252 196.3154 15.51600165  4682"
      },
      "geometry": {
        "type": "Point",
        "coordinates": [
          130.9073435464057,
          -38.328957236428806
        ]
      }
    },
    {
      "type": "Feature",
      "properties": {
        "norad_id": 66804,
        "name": "STARLINK-36038",
        "group": "last-30-days",
        "lat": -37.61854248749096,
        "lon": 133.15079116369657,
        "alt_km": 416.7934988633806,
        "timestamp": "2025-12-23T05:02:10.750179+00:00",
        "meta_object_name": "STARLINK-36038",
        "meta_object_id": "2025-278P",
        "meta_epoch": "2025-12-22T22:00:03.000096",
        "meta_mean_motion": 15.51597629,
        "meta_eccentricity": 0.00017053,
        "meta_inclination": 42.9993,
        "meta_ra_of_asc_node": 190.6591,
        "meta_arg_of_pericenter": 264.4798,
        "meta_mean_anomaly": 193.0723,
        "meta_ephemeris_type": 0,
        "meta_classification_type": "U",
        "meta_norad_cat_id": 66804,
        "meta_element_set_no": 999,
        "meta_rev_at_epoch": 459,
        "meta_bstar": -0.025853669,
        "meta_mean_motion_dot": -0.01409816,
        "meta_mean_motion_ddot": 0,
        "tle_line1": "1 66804U 25278P   25356.91670139 -.01409816  00000+0 -25854-1 0  9990",
        "tle_line2": "2 66804  42.9993 190.6591 0001705 264.4798 193.0723 15.51597629  4599"
      },
      "geometry": {
        "type": "Point",
        "coordinates": [
          133.15079116369657,
          -37.61854248749096
        ]
      }
    },
    {
      "type": "Feature",
      "properties": {
        "norad_id": 66805,
        "name": "STARLINK-36049",
        "group": "last-30-days",
        "lat": -36.06613974427231,
        "lon": 137.52444632547213,
        "alt_km": 416.5702805380224,
        "timestamp": "2025-12-23T05:02:10.750189+00:00",
        "meta_object_name": "STARLINK-36049",
        "meta_object_id": "2025-278Q",
        "meta_epoch": "2025-12-22T22:00:03.000096",
        "meta_mean_motion": 15.51604658,
        "meta_eccentricity": 0.00021662,
        "meta_inclination": 42.9993,
        "meta_ra_of_asc_node": 190.6476,
        "meta_arg_of_pericenter": 261.8849,
        "meta_mean_anomaly": 199.5062,
        "meta_ephemeris_type": 0,
        "meta_classification_type": "U",
        "meta_norad_cat_id": 66805,
        "meta_element_set_no": 999,
        "meta_rev_at_epoch": 459,
        "meta_bstar": -0.026362581,
        "meta_mean_motion_dot": -0.01435192,
        "meta_mean_motion_ddot": 0,
        "tle_line1": "1 66805U 25278Q   25356.91670139 -.01435192  00000+0 -26363-1 0  9993",
        "tle_line2": "2 66805  42.9993 190.6476 0002166 261.8849 199.5062 15.51604658  4590"
      },
      "geometry": {
        "type": "Point",
        "coordinates": [
          137.52444632547213,
          -36.06613974427231
        ]
      }
    },
    {
      "type": "Feature",
      "properties": {
        "norad_id": 66806,
        "name": "STARLINK-36069",
        "group": "last-30-days",
        "lat": -36.86061345983437,
        "lon": 135.36533879446083,
        "alt_km": 416.58317737222205,
        "timestamp": "2025-12-23T05:02:10.750199+00:00",
        "meta_object_name": "STARLINK-36069",
        "meta_object_id": "2025-278R",
        "meta_epoch": "2025-12-22T22:00:03.000096",
        "meta_mean_motion": 15.51617897,
        "meta_eccentricity": 0.00020774,
        "meta_inclination": 42.9995,
        "meta_ra_of_asc_node": 190.653,
        "meta_arg_of_pericenter": 265.4039,
        "meta_mean_anomaly": 194.0685,
        "meta_ephemeris_type": 0,
        "meta_classification_type": "U",
        "meta_norad_cat_id": 66806,
        "meta_element_set_no": 999,
        "meta_rev_at_epoch": 438,
        "meta_bstar": -0.026823091,
        "meta_mean_motion_dot": -0.01458175,
        "meta_mean_motion_ddot": 0,
        "tle_line1": "1 66806U 25278R   25356.91670139 -.01458175  00000+0 -26823-1 0  9991",
        "tle_line2": "2 66806  42.9995 190.6530 0002077 265.4039 194.0685 15.51617897  4383"
      },
      "geometry": {
        "type": "Point",
        "coordinates": [
          135.36533879446083,
          -36.86061345983437
        ]
      }
    }
  ]
}